IRIDIUM 921             
1 24873U 97034E   25025.42642810  .00440669  71999-4  14119-2 0  9994
2 24873  86.3625 175.1645 0004348 316.9086  43.1854 15.90979076509739
IRIDIUM 26              
1 24903U 97043A   25025.44312294  .00001231  00000+0  40954-3 0  9995
2 24903  86.4006 170.5324 0001915  98.5932 261.5482 14.36934893436245
IRIDIUM 22              
1 24907U 97043E   25025.46514906  .00001102  00000+0  37470-3 0  9991
2 24907  86.4007 173.9344 0002048  92.4709 267.6722 14.35771305436297
DUMMY MASS 1            
1 24925U 97048A   25025.54158214  .00001127  00000+0  12357-3 0  9995
2 24925  86.3356 201.2159 0004639 304.1635  55.9150 14.86753984483936
DUMMY MASS 2            
1 24926U 97048B   25025.54734278  .00001117  00000+0  12315-3 0  9999
2 24926  86.3354 202.7935 0005749 317.5539  42.5240 14.86507891483719
IRIDIUM 29              
1 24944U 97051A   25025.53704684  .00001177  00000+0  39688-3 0  9998
2 24944  86.3965 203.6614 0002064  84.5865 275.5567 14.36238977432794
IRIDIUM 33              
1 24946U 97051C   25025.50475203  .00000781  00000+0  26889-3 0  9998
2 24946  86.3883 202.9247 0007996 169.5568 190.5796 14.34736239432288
IRIDIUM 28              
1 24948U 97051E   25025.53326765  .00001055  00000+0  34818-3 0  9997
2 24948  86.3975 201.2614 0001972 103.2435 256.8983 14.37178253433350
